[
    {
        "airport": "LECO",
        "visibility": 0,
        "wind": 0,
        "precipitation": 0,
        "freezing": 0,
        "dangerous": 0,
        "VMC_IMC": 0,
        "date": "17-07-23",
        "airport_name": "A CORUNA",
        "latitude": 43.301944444444445,
        "longitude": -8.377222222222223,
        "countryCode": "ESP",
        "raw_metar": "LECO 230600Z 17004KT 9999 BKN024 13/12 Q1023 NOSIG 17-07-23",
        "datetime": "2017-07-23T06:00:00.000Z"
    },
    {
        "airport": "LEAB",
        "visibility": 0,
        "wind": 0,
        "precipitation": 0,
        "freezing": 0,
        "dangerous": 0,
        "VMC_IMC": 0,
        "date": "17-07-23",
        "airport_name": "ALBACETE",
        "latitude": 38.948611111111106,
        "longitude": -1.8633333333333335,
        "countryCode": "ESP",
        "raw_metar": "LEAB 230600Z 16002KT CAVOK 20/15 Q1019 NOSIG 17-07-23",
        "datetime": "2017-07-23T06:00:00.000Z"
    },
    {
        "airport": "LEAL",
        "visibility": 0,
        "wind": 0,
        "precipitation": 0,
        "freezing": 0,
        "dangerous": 0,
        "VMC_IMC": 0,
        "date": "17-07-23",
        "airport_name": "ALICANTE-ELCHE",
        "latitude": 38.282222222222224,
        "longitude": -0.5580555555555556,
        "countryCode": "ESP",
        "raw_metar": "LEAL 230600Z VRB02KT 9999 FEW014 25/19 Q1015 NOSIG 17-07-23",
        "datetime": "2017-07-23T06:00:00.000Z"
    },
    {
        "airport": "LEAM",
        "visibility": 0,
        "wind": 0,
        "precipitation": 0,
        "freezing": 0,
        "dangerous": 0,
        "VMC_IMC": 0,
        "date": "17-07-23",
        "airport_name": "ALMERIA",
        "latitude": 36.84388888888889,
        "longitude": -2.37,
        "countryCode": "ESP",
        "raw_metar": "LEAM 230600Z 00000KT CAVOK 24/21 Q1015 17-07-23",
        "datetime": "2017-07-23T06:00:00.000Z"
    },
    {
        "airport": "LEAS",
        "visibility": 0,
        "wind": 0,
        "precipitation": 0,
        "freezing": 0,
        "dangerous": 0,
        "VMC_IMC": 0,
        "date": "17-07-23",
        "airport_name": "ASTURIAS",
        "latitude": 43.56361111111111,
        "longitude": -6.034722222222222,
        "countryCode": "ESP",
        "raw_metar": "LEAS 230600Z 23004KT CAVOK 15/14 Q1022 NOSIG 17-07-23",
        "datetime": "2017-07-23T06:00:00.000Z"
    },
    {
        "airport": "LEBZ",
        "visibility": 0,
        "wind": 0,
        "precipitation": 0,
        "freezing": 0,
        "dangerous": 0,
        "VMC_IMC": 0,
        "date": "17-07-23",
        "airport_name": "BADAJOZ",
        "latitude": 38.89138888888889,
        "longitude": -6.8213888888888885,
        "countryCode": "ESP",
        "raw_metar": "LEBZ 230600Z 25002KT CAVOK 16/12 Q1018 17-07-23",
        "datetime": "2017-07-23T06:00:00.000Z"
    },
    {
        "airport": "LEBL",
        "visibility": 0,
        "wind": 0,
        "precipitation": 0,
        "freezing": 0,
        "dangerous": 0,
        "VMC_IMC": 0,
        "date": "17-07-23",
        "airport_name": "BARCELONA/EL PRAT",
        "latitude": 41.29694444444444,
        "longitude": 2.0783333333333336,
        "countryCode": "ESP",
        "raw_metar": "LEBL 230600Z 07005KT 9999 FEW018 SCT045 26/21 Q1017 NOSIG 17-07-23",
        "datetime": "2017-07-23T06:00:00.000Z"
    },
    {
        "airport": "LEBB",
        "visibility": 0,
        "wind": 0,
        "precipitation": 0,
        "freezing": 0,
        "dangerous": 0,
        "VMC_IMC": 0,
        "date": "17-07-23",
        "airport_name": "BILBAO",
        "latitude": 43.301111111111105,
        "longitude": -2.9105555555555553,
        "countryCode": "ESP",
        "raw_metar": "LEBB 230600Z 00000KT 9999 BKN050 17/16 Q1022 NOSIG 17-07-23",
        "datetime": "2017-07-23T06:00:00.000Z"
    },
    {
        "airport": "LEBG",
        "visibility": 0,
        "wind": 0,
        "precipitation": 0,
        "freezing": 0,
        "dangerous": 0,
        "VMC_IMC": 0,
        "date": "17-07-23",
        "airport_name": "BURGOS",
        "latitude": 42.3575,
        "longitude": -3.613611111111111,
        "countryCode": "ESP",
        "raw_metar": "LEBG 230600Z 06004KT 010V090 9999 BKN008 12/11 Q1022 17-07-23",
        "datetime": "2017-07-23T06:00:00.000Z"
    },
    {
        "airport": "LERT",
        "visibility": 0,
        "wind": 0,
        "precipitation": 0,
        "freezing": 0,
        "dangerous": 0,
        "VMC_IMC": 0,
        "date": "17-07-23",
        "airport_name": "CADIZ/ROTA (BASE AERO-NAVAL)",
        "latitude": 36.64527777777778,
        "longitude": -6.349444444444444,
        "countryCode": "ESP",
        "raw_metar": "LERT 230600Z 09003KT 7000 FEW008 19/18 Q1016 NOSIG 17-07-23",
        "datetime": "2017-07-23T06:00:00.000Z"
    },
    {
        "airport": "LEBA",
        "visibility": 0,
        "wind": 0,
        "precipitation": 0,
        "freezing": 0,
        "dangerous": 0,
        "VMC_IMC": 0,
        "date": "17-07-23",
        "airport_name": "CORDOBA",
        "latitude": 37.841944444444444,
        "longitude": -4.848888888888888,
        "countryCode": "ESP",
        "raw_metar": "LEBA 230600Z AUTO 00000KT 9999 NCD 18/14 Q1017 17-07-23",
        "datetime": "2017-07-23T06:00:00.000Z"
    },
    {
        "airport": "GCFV",
        "visibility": 0,
        "wind": 0,
        "precipitation": 0,
        "freezing": 0,
        "dangerous": 0,
        "VMC_IMC": 0,
        "date": "17-07-23",
        "airport_name": "FUERTEVENTURA",
        "latitude": 28.452777777777776,
        "longitude": -13.863888888888889,
        "countryCode": "ESP",
        "raw_metar": "GCFV 230600Z 36012KT 9999 FEW021 21/17 Q1017 17-07-23",
        "datetime": "2017-07-23T06:00:00.000Z"
    },
    {
        "airport": "LEGE",
        "visibility": 0,
        "wind": 0,
        "precipitation": 0,
        "freezing": 0,
        "dangerous": 0,
        "VMC_IMC": 0,
        "date": "17-07-23",
        "airport_name": "GIRONA",
        "latitude": 41.90083333333333,
        "longitude": 2.7605555555555554,
        "countryCode": "ESP",
        "raw_metar": "LEGE 230600Z 03003KT 360V060 9999 FEW040 22/16 Q1018 17-07-23",
        "datetime": "2017-07-23T06:00:00.000Z"
    },
    {
        "airport": "GCLP",
        "visibility": 0,
        "wind": 2,
        "precipitation": 0,
        "freezing": 0,
        "dangerous": 0,
        "VMC_IMC": 0,
        "date": "17-07-23",
        "airport_name": "GRAN CANARIA",
        "latitude": 27.931944444444447,
        "longitude": -15.386666666666667,
        "countryCode": "ESP",
        "raw_metar": "GCLP 230600Z 01019KT 9999 FEW022 BKN030 22/17 Q1018 NOSIG 17-07-23",
        "datetime": "2017-07-23T06:00:00.000Z"
    },
    {
        "airport": "LEGA",
        "visibility": 0,
        "wind": 0,
        "precipitation": 0,
        "freezing": 0,
        "dangerous": 0,
        "VMC_IMC": 0,
        "date": "17-07-23",
        "airport_name": "GRANADA/ARMILLA (MILITAR)",
        "latitude": 37.13333333333333,
        "longitude": -3.6358333333333333,
        "countryCode": "ESP",
        "raw_metar": "LEGA 230600Z 29002KT CAVOK 22/06 Q1019 17-07-23",
        "datetime": "2017-07-23T06:00:00.000Z"
    },
    {
        "airport": "LEGR",
        "visibility": 0,
        "wind": 0,
        "precipitation": 0,
        "freezing": 0,
        "dangerous": 0,
        "VMC_IMC": 0,
        "date": "17-07-23",
        "airport_name": "GRANADA/FEDERICO GARCIA LORCA GRANADA-JAEN",
        "latitude": 37.18861111111111,
        "longitude": -3.777222222222222,
        "countryCode": "ESP",
        "raw_metar": "LEGR 230600Z 00000KT 9999 FEW100 20/07 Q1019 17-07-23",
        "datetime": "2017-07-23T06:00:00.000Z"
    },
    {
        "airport": "GCHI",
        "visibility": 0,
        "wind": 2,
        "precipitation": 0,
        "freezing": 0,
        "dangerous": 0,
        "VMC_IMC": 0,
        "date": "17-07-23",
        "airport_name": "HIERRO",
        "latitude": 27.814722222222223,
        "longitude": -17.886944444444445,
        "countryCode": "ESP",
        "raw_metar": "GCHI 230600Z 01018KT 9999 FEW022 SCT033 22/17 Q1019 17-07-23",
        "datetime": "2017-07-23T06:00:00.000Z"
    },
    {
        "airport": "LEHC",
        "visibility": 0,
        "wind": 0,
        "precipitation": 0,
        "freezing": 0,
        "dangerous": 0,
        "VMC_IMC": 0,
        "date": "17-07-23",
        "airport_name": "HUESCA/PIRINEOS",
        "latitude": 42.08083333333334,
        "longitude": -0.3233333333333333,
        "countryCode": "ESP",
        "raw_metar": "LEHC 230600Z AUTO 24005KT 210V290 9999 BKN010/// OVC026/// 17/15 Q1020 17-07-23",
        "datetime": "2017-07-23T06:00:00.000Z"
    },
    {
        "airport": "LEIB",
        "visibility": 0,
        "wind": 0,
        "precipitation": 0,
        "freezing": 0,
        "dangerous": 0,
        "VMC_IMC": 0,
        "date": "17-07-23",
        "airport_name": "IBIZA",
        "latitude": 38.87277777777778,
        "longitude": 1.3730555555555557,
        "countryCode": "ESP",
        "raw_metar": "LEIB 230600Z 04004KT 340V080 9999 FEW013 25/22 Q1016 NOSIG 17-07-23",
        "datetime": "2017-07-23T06:00:00.000Z"
    },
    {
        "airport": "LEJR",
        "visibility": 0,
        "wind": 0,
        "precipitation": 0,
        "freezing": 0,
        "dangerous": 0,
        "VMC_IMC": 0,
        "date": "17-07-23",
        "airport_name": "JEREZ",
        "latitude": 36.74472222222222,
        "longitude": -6.06,
        "countryCode": "ESP",
        "raw_metar": "LEJR 230600Z 06001KT 9999 SCT005 BKN010 16/15 Q1017 17-07-23",
        "datetime": "2017-07-23T06:00:00.000Z"
    },
    {
        "airport": "GCGM",
        "visibility": 0,
        "wind": 0,
        "precipitation": 0,
        "freezing": 0,
        "dangerous": 0,
        "VMC_IMC": 0,
        "date": "17-07-23",
        "airport_name": "LA GOMERA",
        "latitude": 28.029722222222222,
        "longitude": -17.21472222222222,
        "countryCode": "ESP",
        "raw_metar": "GCGM 230600Z VRB07KT 9999 FEW030 20/15 Q1019 RMK R09/VRB01KT ARP/VRB02KT 17-07-23",
        "datetime": "2017-07-23T06:00:00.000Z"
    },
    {
        "airport": "GCLA",
        "visibility": 0,
        "wind": 2,
        "precipitation": 0,
        "freezing": 0,
        "dangerous": 0,
        "VMC_IMC": 0,
        "date": "17-07-23",
        "airport_name": "LA PALMA",
        "latitude": 28.62638888888889,
        "longitude": -17.755555555555556,
        "countryCode": "ESP",
        "raw_metar": "GCLA 230600Z 36016KT 9999 FEW040 22/16 Q1020 17-07-23",
        "datetime": "2017-07-23T06:00:00.000Z"
    },
    {
        "airport": "GCRR",
        "visibility": 0,
        "wind": 2,
        "precipitation": 0,
        "freezing": 0,
        "dangerous": 0,
        "VMC_IMC": 0,
        "date": "17-07-23",
        "airport_name": "LANZAROTE",
        "latitude": 28.945555555555554,
        "longitude": -13.605277777777777,
        "countryCode": "ESP",
        "raw_metar": "GCRR 230600Z 02017KT 350V050 9999 FEW020 21/17 Q1017 17-07-23",
        "datetime": "2017-07-23T06:00:00.000Z"
    },
    {
        "airport": "LELN",
        "visibility": 0,
        "wind": 0,
        "precipitation": 0,
        "freezing": 0,
        "dangerous": 0,
        "VMC_IMC": 0,
        "date": "17-07-23",
        "airport_name": "LEON",
        "latitude": 42.58861111111111,
        "longitude": -5.6561111111111115,
        "countryCode": "ESP",
        "raw_metar": "LELN 230600Z 36003KT CAVOK 11/08 Q1022 17-07-23",
        "datetime": "2017-07-23T06:00:00.000Z"
    },
    {
        "airport": "LELO",
        "visibility": 0,
        "wind": 0,
        "precipitation": 0,
        "freezing": 0,
        "dangerous": 0,
        "VMC_IMC": 0,
        "date": "17-07-23",
        "airport_name": "LOGRONO/AGONCILLO (MILITAR)",
        "latitude": 42.45416666666667,
        "longitude": -2.3208333333333333,
        "countryCode": "ESP",
        "raw_metar": "LELO 230600Z 31003KT 250V350 9999 BKN029 18/11 Q1022 17-07-23",
        "datetime": "2017-07-23T06:00:00.000Z"
    },
    {
        "airport": "LEMD",
        "visibility": 0,
        "wind": 0,
        "precipitation": 0,
        "freezing": 0,
        "dangerous": 0,
        "VMC_IMC": 0,
        "date": "17-07-23",
        "airport_name": "MADRID/ADOLFO SUAREZ MADRID-BARAJAS",
        "latitude": 40.47222222222222,
        "longitude": -3.560833333333333,
        "countryCode": "ESP",
        "raw_metar": "LEMD 230600Z VRB02KT CAVOK 18/08 Q1019 NOSIG 17-07-23",
        "datetime": "2017-07-23T06:00:00.000Z"
    },
    {
        "airport": "LEVS",
        "visibility": 0,
        "wind": 0,
        "precipitation": 0,
        "freezing": 0,
        "dangerous": 0,
        "VMC_IMC": 0,
        "date": "17-07-23",
        "airport_name": "MADRID/CUATRO VIENTOS (MIL)",
        "latitude": 40.3705556,
        "longitude": -3.7852778,
        "countryCode": "ESP",
        "raw_metar": "LEVS 230600Z VRB02KT CAVOK 22/06 Q1019 17-07-23",
        "datetime": "2017-07-23T06:00:00.000Z"
    },
    {
        "airport": "LEGT",
        "visibility": 0,
        "wind": 0,
        "precipitation": 0,
        "freezing": 0,
        "dangerous": 0,
        "VMC_IMC": 0,
        "date": "17-07-23",
        "airport_name": "MADRID/GETAFE",
        "latitude": 40.29416666666666,
        "longitude": -3.7236111111111114,
        "countryCode": "ESP",
        "raw_metar": "LEGT 230600Z 00000KT CAVOK 20/06 Q1018 17-07-23",
        "datetime": "2017-07-23T06:00:00.000Z"
    },
    {
        "airport": "LETO",
        "visibility": 0,
        "wind": 0,
        "precipitation": 0,
        "freezing": 0,
        "dangerous": 0,
        "VMC_IMC": 0,
        "date": "17-07-23",
        "airport_name": "MADRID/TORREJON",
        "latitude": 40.49666666666667,
        "longitude": -3.4458333333333337,
        "countryCode": "ESP",
        "raw_metar": "LETO 230600Z 08003KT CAVOK 18/06 Q1019 NOSIG 17-07-23",
        "datetime": "2017-07-23T06:00:00.000Z"
    },
    {
        "airport": "LEMG",
        "visibility": 0,
        "wind": 0,
        "precipitation": 0,
        "freezing": 0,
        "dangerous": 0,
        "VMC_IMC": 0,
        "date": "17-07-23",
        "airport_name": "MALAGA/COSTA DEL SOL",
        "latitude": 36.675,
        "longitude": -4.4991666666666665,
        "countryCode": "ESP",
        "raw_metar": "LEMG 230600Z 29005KT CAVOK 20/14 Q1015 NOSIG 17-07-23",
        "datetime": "2017-07-23T06:00:00.000Z"
    },
    {
        "airport": "GEML",
        "visibility": 0,
        "wind": 0,
        "precipitation": 0,
        "freezing": 0,
        "dangerous": 0,
        "VMC_IMC": 0,
        "date": "17-07-23",
        "airport_name": "MELILLA",
        "latitude": 35.27972222222222,
        "longitude": -2.956388888888889,
        "countryCode": "ESP",
        "raw_metar": "GEML 230600Z 28004KT 250V310 CAVOK 24/14 Q1016 17-07-23",
        "datetime": "2017-07-23T06:00:00.000Z"
    },
    {
        "airport": "LEMH",
        "visibility": 0,
        "wind": 0,
        "precipitation": 0,
        "freezing": 0,
        "dangerous": 0,
        "VMC_IMC": 0,
        "date": "17-07-23",
        "airport_name": "MENORCA",
        "latitude": 39.862500000000004,
        "longitude": 4.2186111111111115,
        "countryCode": "ESP",
        "raw_metar": "LEMH 230600Z 07005KT 050V110 8000 FEW010 25/23 Q1018 17-07-23",
        "datetime": "2017-07-23T06:00:00.000Z"
    },
    {
        "airport": "LERI",
        "visibility": 0,
        "wind": 0,
        "precipitation": 0,
        "freezing": 0,
        "dangerous": 0,
        "VMC_IMC": 0,
        "date": "17-07-23",
        "airport_name": "MURCIA/ALCANTARILLA (MILITAR)",
        "latitude": 37.952222222222225,
        "longitude": -1.2308333333333334,
        "countryCode": "ESP",
        "raw_metar": "LERI 230600Z VRB01KT CAVOK 23/18 Q1016 NOSIG 17-07-23",
        "datetime": "2017-07-23T06:00:00.000Z"
    },
    {
        "airport": "LELC",
        "visibility": 0,
        "wind": 0,
        "precipitation": 0,
        "freezing": 0,
        "dangerous": 0,
        "VMC_IMC": 0,
        "date": "17-07-23",
        "airport_name": "MURCIA/SAN JAVIER",
        "latitude": 37.775,
        "longitude": -0.8125,
        "countryCode": "ESP",
        "raw_metar": "LELC 230600Z VRB02KT CAVOK 25/20 Q1016 NOSIG 17-07-23",
        "datetime": "2017-07-23T06:00:00.000Z"
    },
    {
        "airport": "LEPA",
        "visibility": 0,
        "wind": 2,
        "precipitation": 0,
        "freezing": 0,
        "dangerous": 0,
        "VMC_IMC": 0,
        "date": "17-07-23",
        "airport_name": "PALMA DE MALLORCA",
        "latitude": 39.55166666666666,
        "longitude": 2.738888888888889,
        "countryCode": "ESP",
        "raw_metar": "LEPA 230600Z 34003G13KT 290V030 9999 FEW018 SCT022 24/20 Q1017 NOSIG 17-07-23",
        "datetime": "2017-07-23T06:00:00.000Z"
    },
    {
        "airport": "LEPP",
        "visibility": 0,
        "wind": 0,
        "precipitation": 0,
        "freezing": 0,
        "dangerous": 0,
        "VMC_IMC": 0,
        "date": "17-07-23",
        "airport_name": "PAMPLONA",
        "latitude": 42.769999999999996,
        "longitude": -1.646388888888889,
        "countryCode": "ESP",
        "raw_metar": "LEPP 230600Z 32005KT 9999 FEW017 16/13 Q1022 17-07-23",
        "datetime": "2017-07-23T06:00:00.000Z"
    },
    {
        "airport": "LERS",
        "visibility": 0,
        "wind": 0,
        "precipitation": 0,
        "freezing": 0,
        "dangerous": 0,
        "VMC_IMC": 0,
        "date": "17-07-23",
        "airport_name": "REUS",
        "latitude": 41.1475,
        "longitude": 1.1672222222222224,
        "countryCode": "ESP",
        "raw_metar": "LERS 230600Z 36006KT 330V030 9999 FEW015 SCT020 BKN038 26/22 Q1017 17-07-23",
        "datetime": "2017-07-23T06:00:00.000Z"
    },
    {
        "airport": "LELL",
        "visibility": 0,
        "wind": 0,
        "precipitation": 0,
        "freezing": 0,
        "dangerous": 0,
        "VMC_IMC": 0,
        "date": "17-07-23",
        "airport_name": "SABADELL",
        "latitude": 41.520833333333336,
        "longitude": 2.105,
        "countryCode": "ESP",
        "raw_metar": "LELL 230600Z 00000KT 9999 FEW020 SCT040 25/21 Q1018 17-07-23",
        "datetime": "2017-07-23T06:00:00.000Z"
    },
    {
        "airport": "LESA",
        "visibility": 0,
        "wind": 0,
        "precipitation": 0,
        "freezing": 0,
        "dangerous": 0,
        "VMC_IMC": 0,
        "date": "17-07-23",
        "airport_name": "SALAMANCA",
        "latitude": 40.95194444444445,
        "longitude": -5.501944444444445,
        "countryCode": "ESP",
        "raw_metar": "LESA 230600Z 00000KT CAVOK 12/10 Q1021 17-07-23",
        "datetime": "2017-07-23T06:00:00.000Z"
    },
    {
        "airport": "LESO",
        "visibility": 0,
        "wind": 0,
        "precipitation": 0,
        "freezing": 0,
        "dangerous": 0,
        "VMC_IMC": 0,
        "date": "17-07-23",
        "airport_name": "SAN SEBASTIAN",
        "latitude": 43.35638888888889,
        "longitude": -1.7905555555555555,
        "countryCode": "ESP",
        "raw_metar": "LESO 230600Z 19005KT 9999 FEW028 BKN050 19/16 Q1021 17-07-23",
        "datetime": "2017-07-23T06:00:00.000Z"
    },
    {
        "airport": "LEXJ",
        "visibility": 0,
        "wind": 0,
        "precipitation": 0,
        "freezing": 0,
        "dangerous": 0,
        "VMC_IMC": 0,
        "date": "17-07-23",
        "airport_name": "SANTANDER/SEVE BALLESTEROS-SANTANDER",
        "latitude": 43.426944444444445,
        "longitude": -3.82,
        "countryCode": "ESP",
        "raw_metar": "LEXJ 230600Z 24006KT 9999 BKN044 17/13 Q1021 17-07-23",
        "datetime": "2017-07-23T06:00:00.000Z"
    },
    {
        "airport": "LEST",
        "visibility": 0,
        "wind": 0,
        "precipitation": 0,
        "freezing": 0,
        "dangerous": 0,
        "VMC_IMC": 0,
        "date": "17-07-23",
        "airport_name": "SANTIAGO",
        "latitude": 42.896388888888886,
        "longitude": -8.415277777777778,
        "countryCode": "ESP",
        "raw_metar": "LEST 230600Z 00000KT 9999 BKN012 11/10 Q1023 NOSIG 17-07-23",
        "datetime": "2017-07-23T06:00:00.000Z"
    },
    {
        "airport": "LEZL",
        "visibility": 0,
        "wind": 0,
        "precipitation": 0,
        "freezing": 0,
        "dangerous": 0,
        "VMC_IMC": 0,
        "date": "17-07-23",
        "airport_name": "SEVILLA",
        "latitude": 37.418055555555554,
        "longitude": -5.898888888888888,
        "countryCode": "ESP",
        "raw_metar": "LEZL 230600Z 00000KT CAVOK 19/15 Q1017 NOSIG 17-07-23",
        "datetime": "2017-07-23T06:00:00.000Z"
    },
    {
        "airport": "LEMO",
        "visibility": 0,
        "wind": 0,
        "precipitation": 0,
        "freezing": 0,
        "dangerous": 0,
        "VMC_IMC": 0,
        "date": "17-07-23",
        "airport_name": "SEVILLA/MORON (MILITAR)",
        "latitude": 37.175,
        "longitude": -5.616111111111111,
        "countryCode": "ESP",
        "raw_metar": "LEMO 230600Z 13002KT CAVOK 18/10 Q1017 NOSIG 17-07-23",
        "datetime": "2017-07-23T06:00:00.000Z"
    },
    {
        "airport": "GCXO",
        "visibility": 0,
        "wind": 2,
        "precipitation": 0,
        "freezing": 0,
        "dangerous": 0,
        "VMC_IMC": 0,
        "date": "17-07-23",
        "airport_name": "TENERIFE NORTE",
        "latitude": 28.482777777777777,
        "longitude": -16.341666666666665,
        "countryCode": "ESP",
        "raw_metar": "GCXO 230600Z 31017KT 290V350 9999 FEW004 BKN017 17/16 Q1021 NOSIG 17-07-23",
        "datetime": "2017-07-23T06:00:00.000Z"
    },
    {
        "airport": "GCTS",
        "visibility": 0,
        "wind": 0,
        "precipitation": 0,
        "freezing": 0,
        "dangerous": 0,
        "VMC_IMC": 0,
        "date": "17-07-23",
        "airport_name": "TENERIFE SUR/REINA SOFIA",
        "latitude": 28.044444444444448,
        "longitude": -16.572499999999998,
        "countryCode": "ESP",
        "raw_metar": "GCTS 230600Z 04006KT 020V080 9999 FEW040 21/14 Q1018 NOSIG 17-07-23",
        "datetime": "2017-07-23T06:00:00.000Z"
    },
    {
        "airport": "LETL",
        "visibility": 0,
        "wind": 0,
        "precipitation": 0,
        "freezing": 0,
        "dangerous": 0,
        "VMC_IMC": 0,
        "date": "17-07-23",
        "airport_name": "TERUEL",
        "latitude": 40.411944444444444,
        "longitude": -1.2175,
        "countryCode": "ESP",
        "raw_metar": "LETL 230600Z AUTO 00000KT CAVOK 14/11 Q1022 17-07-23",
        "datetime": "2017-07-23T06:00:00.000Z"
    },
    {
        "airport": "LEVC",
        "visibility": 0,
        "wind": 0,
        "precipitation": 0,
        "freezing": 0,
        "dangerous": 0,
        "VMC_IMC": 0,
        "date": "17-07-23",
        "airport_name": "VALENCIA",
        "latitude": 39.489444444444445,
        "longitude": -0.4816666666666667,
        "countryCode": "ESP",
        "raw_metar": "LEVC 230600Z 00000KT 9999 BKN013 25/21 Q1017 NOSIG 17-07-23",
        "datetime": "2017-07-23T06:00:00.000Z"
    },
    {
        "airport": "LEVD",
        "visibility": 0,
        "wind": 0,
        "precipitation": 0,
        "freezing": 0,
        "dangerous": 0,
        "VMC_IMC": 0,
        "date": "17-07-23",
        "airport_name": "VALLADOLID",
        "latitude": 41.70611111111111,
        "longitude": -4.851944444444444,
        "countryCode": "ESP",
        "raw_metar": "LEVD 230600Z 02003KT 350V050 CAVOK 12/10 Q1021 17-07-23",
        "datetime": "2017-07-23T06:00:00.000Z"
    },
    {
        "airport": "LEVX",
        "visibility": 0,
        "wind": 0,
        "precipitation": 0,
        "freezing": 0,
        "dangerous": 0,
        "VMC_IMC": 0,
        "date": "17-07-23",
        "airport_name": "VIGO",
        "latitude": 42.22916666666667,
        "longitude": -8.627500000000001,
        "countryCode": "ESP",
        "raw_metar": "LEVX 230600Z VRB02KT CAVOK 13/12 Q1022 NOSIG 17-07-23",
        "datetime": "2017-07-23T06:00:00.000Z"
    },
    {
        "airport": "LEVT",
        "visibility": 0,
        "wind": 0,
        "precipitation": 0,
        "freezing": 0,
        "dangerous": 0,
        "VMC_IMC": 0,
        "date": "17-07-23",
        "airport_name": "VITORIA",
        "latitude": 42.882777777777775,
        "longitude": -2.7244444444444444,
        "countryCode": "ESP",
        "raw_metar": "LEVT 230600Z 00000KT 9999 FEW015 BKN028 14/12 Q1023 17-07-23",
        "datetime": "2017-07-23T06:00:00.000Z"
    },
    {
        "airport": "LEZG",
        "visibility": 0,
        "wind": 0,
        "precipitation": 0,
        "freezing": 0,
        "dangerous": 0,
        "VMC_IMC": 0,
        "date": "17-07-23",
        "airport_name": "ZARAGOZA",
        "latitude": 41.66611111111111,
        "longitude": -1.0416666666666667,
        "countryCode": "ESP",
        "raw_metar": "LEZG 230600Z 28015KT 260V320 9999 SCT040 18/14 Q1020 17-07-23",
        "datetime": "2017-07-23T06:00:00.000Z"
    }
]